{
    "links": {
        "self": "http://www.neowsapp.com/rest/v1/neo/3475233?api_key=iIulBulltgU6a56xZRHN4H3l9WmuAYTsLGpBGhQ2"
    },
    "id": "3475233",
    "neo_reference_id": "3475233",
    "name": "(2009 VR)",
    "designation": "2009 VR",
    "nasa_jpl_url": "http://ssd.jpl.nasa.gov/sbdb.cgi?sstr=3475233",
    "absolute_magnitude_h": 28.1,
    "estimated_diameter": {
        "kilometers": {
            "estimated_diameter_min": 0.0063760979,
            "estimated_diameter_max": 0.0142573883
        },
        "meters": {
            "estimated_diameter_min": 6.3760978988,
            "estimated_diameter_max": 14.2573883328
        },
        "miles": {
            "estimated_diameter_min": 0.0039619223,
            "estimated_diameter_max": 0.0088591276
        },
        "feet": {
            "estimated_diameter_min": 20.9189570301,
            "estimated_diameter_max": 46.7762099378
        }
    },
    "is_potentially_hazardous_asteroid": false,
    "close_approach_data": [
        {
            "close_approach_date": "2002-02-24",
            "close_approach_date_full": "2002-Feb-24 03:59",
            "epoch_date_close_approach": 1014523140000,
            "relative_velocity": {
                "kilometers_per_second": "20.7855080846",
                "kilometers_per_hour": "74827.8291044394",
                "miles_per_hour": "46495.1030343668"
            },
            "miss_distance": {
                "astronomical": "0.4650435707",
                "lunar": "180.9019490023",
                "kilometers": "69569527.633914409",
                "miles": "43228499.9395364842"
            },
            "orbiting_body": "Earth"
        },
        {
            "close_approach_date": "2004-02-14",
            "close_approach_date_full": "2004-Feb-14 16:35",
            "epoch_date_close_approach": 1076776500000,
            "relative_velocity": {
                "kilometers_per_second": "15.5080899892",
                "kilometers_per_hour": "55829.1239609911",
                "miles_per_hour": "34690.0464967614"
            },
            "miss_distance": {
                "astronomical": "0.295723917",
                "lunar": "115.036603713",
                "kilometers": "44239668.09125679",
                "miles": "27489255.058212102"
            },
            "orbiting_body": "Earth"
        },
        {
            "close_approach_date": "2009-11-13",
            "close_approach_date_full": "2009-Nov-13 16:33",
            "epoch_date_close_approach": 1258129980000,
            "relative_velocity": {
                "kilometers_per_second": "7.6635197039",
                "kilometers_per_hour": "27588.6709342066",
                "miles_per_hour": "17142.5272257574"
            },
            "miss_distance": {
                "astronomical": "0.0168750838",
                "lunar": "6.5644075982",
                "kilometers": "2524476.592551506",
                "miles": "1568637.0159465428"
            },
            "orbiting_body": "Earth"
        },
        {
            "close_approach_date": "2011-10-24",
            "close_approach_date_full": "2011-Oct-24 18:00",
            "epoch_date_close_approach": 1319479200000,
            "relative_velocity": {
                "kilometers_per_second": "13.6763576731",
                "kilometers_per_hour": "49234.8876232907",
                "miles_per_hour": "30592.6444790386"
            },
            "miss_distance": {
                "astronomical": "0.212674898",
                "lunar": "82.730535322",
                "kilometers": "31815711.74326726",
                "miles": "19769366.559557788"
            },
            "orbiting_body": "Earth"
        },
        {
            "close_approach_date": "2013-10-11",
            "close_approach_date_full": "2013-Oct-11 18:07",
            "epoch_date_close_approach": 1381514820000,
            "relative_velocity": {
                "kilometers_per_second": "19.9045091139",
                "kilometers_per_hour": "71656.232810108",
                "miles_per_hour": "44524.3964369252"
            },
            "miss_distance": {
                "astronomical": "0.4244600988",
                "lunar": "165.1149784332",
                "kilometers": "63498326.680469556",
                "miles": "39456030.5987936328"
            },
            "orbiting_body": "Earth"
        }
    ],
    "orbital_data": {
        "orbit_id": "8",
        "orbit_determination_date": "2017-04-06 08:59:18",
        "first_observation_date": "2009-11-08",
        "last_observation_date": "2009-11-14",
        "data_arc_in_days": 6,
        "observations_used": 30,
        "orbit_uncertainty": "8",
        "minimum_orbit_intersection": ".0137837",
        "jupiter_tisserand_invariant": "4.309",
        "epoch_osculation": "2455144.5",
        "eccentricity": ".3972585194743141",
        "semi_major_axis": "1.575080473749052",
        "inclination": "5.097786659440847",
        "ascending_node_longitude": "45.57078774623273",
        "orbital_period": "722.0255204594399",
        "perihelion_distance": ".9493663366946025",
        "perihelion_argument": "41.11498593039131",
        "aphelion_distance": "2.200794610803502",
        "perihelion_time": "2455177.877601502658",
        "mean_anomaly": "343.3580168560927",
        "mean_motion": ".4985973345802576",
        "equinox": "J2000",
        "orbit_class": {
            "orbit_class_type": "APO",
            "orbit_class_description": "Near-Earth asteroid orbits which cross the Earth’s orbit similar to that of 1862 Apollo",
            "orbit_class_range": "a (semi-major axis) > 1.0 AU; q (perihelion) < 1.017 AU"
        }
    },
    "is_sentry_object": false
}